NORAD_CAT_ID,OBJECT_NAME,OBJECT_TYPE,EPOCH,MEAN_MOTION,ECCENTRICITY,INCLINATION,RA_OF_ASC_NODE,ARG_OF_PERICENTER,MEAN_ANOMALY,BSTAR,MEAN_MOTION_DOT,MEAN_MOTION_DDOT,TLE_LINE0,TLE_LINE1,TLE_LINE2,SEMIMAJOR_AXIS,PERIOD,APOGEE,PERIGEE,DECAYED
54769.0,STARLINK-5404,PAYLOAD,2024-05-08 12:09:12,15.08841134,0.0001289,53.2154,172.7253,96.1412,263.9727,6.2548e-05,7.08e-06,0.0,0 STARLINK-5404,1 54769U 22175M   24129.50638921  .00000708  00000-0  62548-4 0  9994,2 54769  53.2154 172.7253 0001289  96.1412 263.9727 15.08841134 78740,6917.877,95.437,540.634,538.85,0.0
54769.0,STARLINK-5404,PAYLOAD,2024-05-08 20:06:07,15.08844213,0.0001275,53.2156,171.2374,87.2694,272.8444,9.1488e-05,1.169e-05,0.0,0 STARLINK-5404,1 54769U 22175M   24129.83758558  .00001169  00000-0  91488-4 0  9996,2 54769  53.2156 171.2374 0001275  87.2694 272.8444 15.08844213 76630,6917.868,95.437,540.615,538.85,0.0
54769.0,STARLINK-5404,PAYLOAD,2024-05-09 08:49:12,15.08843369,0.000132,53.2159,168.8577,89.6716,270.4427,0.00011436,1.533e-05,0.0,0 STARLINK-5404,1 54769U 22175M   24130.36750587  .00001533  00000-0  11436-3 0  9999,2 54769  53.2159 168.8577 0001320  89.6716 270.4427 15.08843369 78876,6917.87,95.437,540.648,538.822,0.0
54769.0,STARLINK-5404,PAYLOAD,2024-05-10 11:50:46,15.08812353,0.0001246,53.2151,163.8031,95.5008,264.6126,0.000438,6.685e-05,0.0,0 STARLINK-5404,1 54769U 22175M   24131.49359850  .00006685  00000-0  43800-3 0  9995,2 54769  53.2151 163.8031 0001246  95.5008 264.6126 15.08812353 76884,6917.965,95.439,540.692,538.968,0.0
54769.0,STARLINK-5404,PAYLOAD,2024-05-10 19:47:41,15.0884311,0.0001364,53.2157,162.3165,89.1155,270.9993,4.1949e-05,3.8e-06,0.0,0 STARLINK-5404,1 54769U 22175M   24131.82478948  .00000380  00000-0  41949-4 0  9991,2 54769  53.2157 162.3165 0001364  89.1155 270.9993 15.08843110 76938,6917.871,95.437,540.679,538.792,0.0
54769.0,STARLINK-5404,PAYLOAD,2024-05-11 11:41:31,15.08879582,0.0001331,53.2151,159.341,97.9654,262.1489,0.00061587,9.538e-05,0.0,0 STARLINK-5404,1 54769U 22175M   24132.48716648  .00009538  00000-0  61587-3 0  9999,2 54769  53.2151 159.3410 0001331  97.9654 262.1489 15.08879582 77033,6917.759,95.435,540.545,538.704,0.0
54769.0,STARLINK-5404,PAYLOAD,2024-05-12 05:10:47,15.08812431,0.0001,53.214,156.0713,70.4533,289.6567,-0.00061833,-0.00010107,0.0,0 STARLINK-5404,1 54769U 22175M   24133.21582940 -.00010107  00000-0 -61833-3 0  9997,2 54769  53.2140 156.0713 0001000  70.4533 289.6567 15.08812431 77149,6917.965,95.439,540.521,539.138,0.0
54769.0,STARLINK-5404,PAYLOAD,2024-05-12 08:21:34,15.08807314,0.0001395,53.2155,155.4763,109.348,250.7663,-0.00068997,-0.00011242,0.0,0 STARLINK-5404,1 54769U 22175M   24133.34831278 -.00011242  00000-0 -68997-3 0  9991,2 54769  53.2155 155.4763 0001395 109.3480 250.7663 15.08807314 79325,6917.98,95.44,540.81,538.88,0.0
54769.0,STARLINK-5404,PAYLOAD,2024-05-12 17:53:54,15.08789811,0.0001397,53.2149,153.692,106.4417,253.6728,-0.00085524,-0.00013854,0.0,0 STARLINK-5404,1 54769U 22175M   24133.74576793 -.00013854  00000-0 -85524-3 0  9999,2 54769  53.2149 153.6920 0001397 106.4417 253.6728 15.08789811 77225,6918.034,95.441,540.865,538.932,0.0
54769.0,STARLINK-5404,PAYLOAD,2024-05-13 05:01:36,15.08821581,0.0001595,53.2165,151.6078,110.1703,249.9461,-0.0001249,-2.274e-05,0.0,0 STARLINK-5404,1 54769U 22175M   24134.20944624 -.00002274  00000-0 -12490-3 0  9999,2 54769  53.2165 151.6078 0001595 110.1703 249.9461 15.08821581 77295,6917.937,95.439,540.905,538.698,0.0
54769.0,STARLINK-5404,PAYLOAD,2024-05-13 08:12:22,15.08824856,0.0001589,53.2162,151.0153,110.1728,249.9436,2.643e-06,-2.46e-06,0.0,0 STARLINK-5404,1 54769U 22175M   24134.34192700 -.00000246  00000-0  26430-5 0  9991,2 54769  53.2162 151.0153 0001589 110.1728 249.9436 15.08824856 79472,6917.927,95.439,540.891,538.692,0.0
54769.0,STARLINK-5404,PAYLOAD,2024-05-13 17:44:42,15.08821155,0.000155,53.2152,149.2315,112.0385,248.0771,0.00040828,6.212e-05,0.0,0 STARLINK-5404,1 54769U 22175M   24134.73937540  .00006212  00000-0  40828-3 0  9996,2 54769  53.2152 149.2315 0001550 112.0385 248.0771 15.08821155 79536,6917.938,95.439,540.875,538.731,0.0
54769.0,STARLINK-5404,PAYLOAD,2024-05-14 08:03:10,15.08833636,0.0001442,53.2149,146.5552,118.5343,241.5794,0.00065334,0.00010123,0.0,0 STARLINK-5404,1 54769U 22175M   24135.33553818  .00010123  00000-0  65334-3 0  9990,2 54769  53.2149 146.5552 0001442 118.5343 241.5794 15.08833636 77460,6917.9,95.438,540.762,538.767,0.0
54769.0,STARLINK-5404,PAYLOAD,2024-05-14 17:35:29,15.0884496,0.000145,53.2147,144.7711,121.238,238.8754,0.00064391,9.976e-05,0.0,0 STARLINK-5404,1 54769U 22175M   24135.73297515  .00009976  00000-0  64391-3 0  9999,2 54769  53.2147 144.7711 0001450 121.2380 238.8754 15.08844960 79689,6917.865,95.437,540.733,538.727,0.0
54769.0,STARLINK-5404,PAYLOAD,2024-05-15 04:43:10,15.08859605,0.0001417,53.2146,142.6894,124.175,235.9377,0.00052568,8.093e-05,0.0,0 STARLINK-5404,1 54769U 22175M   24136.19664669  .00008093  00000-0  52568-3 0  9990,2 54769  53.2146 142.6894 0001417 124.1750 235.9377 15.08859605 77592,6917.82,95.436,540.666,538.705,0.0
54769.0,STARLINK-5404,PAYLOAD,2024-05-15 09:29:19,15.08868307,0.0001437,53.2146,141.7975,124.9972,235.1155,0.00071525,0.00011122,0.0,0 STARLINK-5404,1 54769U 22175M   24136.39536309  .00011122  00000-0  71525-3 0  9992,2 54769  53.2146 141.7975 0001437 124.9972 235.1155 15.08868307 79786,6917.794,95.436,540.653,538.665,0.0
54769.0,STARLINK-5404,PAYLOAD,2024-05-16 06:09:19,15.08860818,0.0001391,53.2149,137.9313,123.349,236.7635,0.00022906,3.361e-05,0.0,0 STARLINK-5404,1 54769U 22175M   24137.25647395  .00003361  00000-0  22906-3 0  9991,2 54769  53.2149 137.9313 0001391 123.3490 236.7635 15.08860818 77753,6917.817,95.436,540.644,538.719,0.0
54769.0,STARLINK-5404,PAYLOAD,2024-05-16 09:20:05,15.08859542,0.0001388,53.2152,137.3367,123.4412,236.6713,0.00018489,2.657e-05,0.0,0 STARLINK-5404,1 54769U 22175M   24137.38895341  .00002657  00000-0  18489-3 0  9999,2 54769  53.2152 137.3367 0001388 123.4412 236.6713 15.08859542 79931,6917.821,95.436,540.646,538.725,0.0
54769.0,STARLINK-5404,PAYLOAD,2024-05-16 17:16:59,15.08885043,0.0001077,53.2152,135.8496,122.1416,237.9681,0.00059453,9.198e-05,0.0,0 STARLINK-5404,1 54769U 22175M   24137.72013633  .00009198  00000-0  59453-3 0  9996,2 54769  53.2152 135.8496 0001077 122.1416 237.9681 15.08885043 77821,6917.743,95.435,540.353,538.863,0.0
54769.0,STARLINK-5404,PAYLOAD,2024-05-17 06:00:05,15.08830963,0.0001433,53.2153,133.4708,107.7617,252.3532,-0.00058376,-9.564e-05,0.0,0 STARLINK-5404,1 54769U 22175M   24138.25006644 -.00009564  00000-0 -58376-3 0  9991,2 54769  53.2153 133.4708 0001433 107.7617 252.3532 15.08830963 77906,6917.908,95.438,540.764,538.782,0.0
54769.0,STARLINK-5404,PAYLOAD,2024-05-17 17:07:47,15.08834596,0.0001367,53.2161,131.3888,106.636,253.4783,-0.00028458,-4.813e-05,0.0,0 STARLINK-5404,1 54769U 22175M   24138.71374937 -.00004813  00000-0 -28458-3 0  9995,2 54769  53.2161 131.3888 0001367 106.6360 253.4783 15.08834596 80135,6917.897,95.438,540.708,538.816,0.0
54769.0,STARLINK-5404,PAYLOAD,2024-05-18 05:50:52,15.08840626,0.0001314,53.2155,129.0093,103.5362,256.5776,-5.9615e-05,-1.237e-05,0.0,0 STARLINK-5404,1 54769U 22175M   24139.24366463 -.00001237  00000-0 -59615-4 0  9996,2 54769  53.2155 129.0093 0001314 103.5362 256.5776 15.08840626 78055,6917.878,95.438,540.652,538.834,0.0
54769.0,STARLINK-5404,PAYLOAD,2024-05-19 05:41:40,15.0882879,0.0001384,53.2154,124.5475,98.9764,261.1385,0.00025454,3.764e-05,0.0,0 STARLINK-5404,1 54769U 22175M   24140.23727683  .00003764  00000-0  25454-3 0  9990,2 54769  53.2154 124.5475 0001384  98.9764 261.1385 15.08828790 78201,6917.915,95.438,540.737,538.822,0.0
54769.0,STARLINK-5404,PAYLOAD,2024-05-20 05:32:27,15.08842433,0.000144,53.2157,120.0873,101.7174,258.398,0.00029248,4.37e-05,0.0,0 STARLINK-5404,1 54769U 22175M   24141.23087640  .00004370  00000-0  29248-3 0  9992,2 54769  53.2157 120.0873 0001440 101.7174 258.3980 15.08842433 80514,6917.873,95.437,540.734,538.742,0.0
54769.0,STARLINK-5404,PAYLOAD,2024-05-20 21:26:19,15.08844135,0.0001431,53.216,117.1174,103.4556,256.6596,0.00028493,4.25e-05,0.0,0 STARLINK-5404,1 54769U 22175M   24141.89327608  .00004250  00000-0  28493-3 0  9993,2 54769  53.2160 117.1174 0001431 103.4556 256.6596 15.08844135 78457,6917.868,95.437,540.723,538.743,0.0
54769.0,STARLINK-5404,PAYLOAD,2024-05-21 03:47:51,15.08839827,0.0001337,53.2147,115.9233,124.5758,235.5361,0.0001544,2.17e-05,0.0,0 STARLINK-5404,1 54769U 22175M   24142.15823709  .00002170  00000-0  15440-3 0  9993,2 54769  53.2147 115.9233 0001337 124.5758 235.5361 15.08839827 78499,6917.881,95.438,540.671,538.821,0.0
54769.0,STARLINK-5404,PAYLOAD,2024-05-22 05:14:02,15.08838473,0.0001364,53.2159,111.1665,111.873,248.2407,1.8685e-05,9e-08,0.0,0 STARLINK-5404,1 54769U 22175M   24143.21808083  .00000009  00000-0  18685-4 0  9993,2 54769  53.2159 111.1665 0001364 111.8730 248.2407 15.08838473 78654,6917.885,95.438,540.694,538.806,0.0
54769.0,STARLINK-5404,PAYLOAD,2024-05-22 06:49:25,15.08837895,0.0001276,53.2156,110.8692,105.9592,254.1541,7.3886e-06,-1.7e-06,0.0,0 STARLINK-5404,1 54769U 22175M   24143.28432133 -.00000170  00000-0  73886-5 0  9994,2 54769  53.2156 110.8692 0001276 105.9592 254.1541 15.08837895 80823,6917.887,95.438,540.635,538.869,0.0
54769.0,STARLINK-5404,PAYLOAD,2024-05-22 21:07:53,15.08835968,0.0001228,53.2158,108.1939,95.3919,264.7213,0.00014732,2.057e-05,0.0,0 STARLINK-5404,1 54769U 22175M   24143.88048413  .00002057  00000-0  14732-3 0  9992,2 54769  53.2158 108.1939 0001228  95.3919 264.7213 15.08835968 80913,6917.893,95.438,540.607,538.908,0.0
54769.0,STARLINK-5404,PAYLOAD,2024-05-23 06:40:12,15.08840197,0.0001304,53.2162,106.4096,96.8246,263.2895,0.00018354,2.634e-05,0.0,0 STARLINK-5404,1 54769U 22175M   24144.27792358  .00002634  00000-0  18354-3 0  9995,2 54769  53.2162 106.4096 0001304  96.8246 263.2895 15.08840197 78813,6917.88,95.438,540.647,538.843,0.0
